[{"OBJECT_NAME":"ONEWEB-0183","OBJECT_ID":"2021-031K","EPOCH":"2025-08-07T21:22:51.358080","MEAN_MOTION":13.14503514,"ECCENTRICITY":0.000185,"INCLINATION":87.9072,"RA_OF_ASC_NODE":352.0656,"ARG_OF_PERICENTER":104.0092,"MEAN_ANOMALY":256.1244,"EPHEMERIS_TYPE":0,"CLASSIFICATION_TYPE":"U","NORAD_CAT_ID":48219,"ELEMENT_SET_NO":999,"REV_AT_EPOCH":20716,"BSTAR":0.00047769,"MEAN_MOTION_DOT":1.9e-6,"MEAN_MOTION_DDOT":0},{"OBJECT_NAME":"ONEWEB-0185","OBJECT_ID":"2021-031L","EPOCH":"2025-08-08T14:27:00.505152","MEAN_MOTION":13.14502387,"ECCENTRICITY":0.0001625,"INCLINATION":87.9077,"RA_OF_ASC_NODE":351.8902,"ARG_OF_PERICENTER":110.6565,"MEAN_ANOMALY":249.4739,"EPHEMERIS_TYPE":0,"CLASSIFICATION_TYPE":"U","NORAD_CAT_ID":48220,"ELEMENT_SET_NO":999,"REV_AT_EPOCH":20718,"BSTAR":0.00027196,"MEAN_MOTION_DOT":1.14e-6,"MEAN_MOTION_DDOT":0},{"OBJECT_NAME":"ONEWEB-0187","OBJECT_ID":"2021-031M","EPOCH":"2025-08-08T08:29:27.076704","MEAN_MOTION":13.14502807,"ECCENTRICITY":0.0001527,"INCLINATION":87.9075,"RA_OF_ASC_NODE":351.9863,"ARG_OF_PERICENTER":101.9666,"MEAN_ANOMALY":258.1635,"EPHEMERIS_TYPE":0,"CLASSIFICATION_TYPE":"U","NORAD_CAT_ID":48221,"ELEMENT_SET_NO":999,"REV_AT_EPOCH":20716,"BSTAR":0.00072719,"MEAN_MOTION_DOT":2.82e-6,"MEAN_MOTION_DDOT":0},{"OBJECT_NAME":"ONEWEB-0192","OBJECT_ID":"2021-031N","EPOCH":"2025-08-08T07:46:14.585088","MEAN_MOTION":13.14502393,"ECCENTRICITY":0.0001764,"INCLINATION":87.9079,"RA_OF_ASC_NODE":351.9852,"ARG_OF_PERICENTER":94.8813,"MEAN_ANOMALY":265.2518,"EPHEMERIS_TYPE":0,"CLASSIFICATION_TYPE":"U","NORAD_CAT_ID":48222,"ELEMENT_SET_NO":999,"REV_AT_EPOCH":20707,"BSTAR":-0.0010729,"MEAN_MOTION_DOT":-3.85e-6,"MEAN_MOTION_DDOT":0},{"OBJECT_NAME":"ONEWEB-0219","OBJECT_ID":"2021-031P","EPOCH":"2025-08-08T14:35:00.528000","MEAN_MOTION":13.14505181,"ECCENTRICITY":0.0001585,"INCLINATION":87.9078,"RA_OF_ASC_NODE":351.9013,"ARG_OF_PERICENTER":104.7598,"MEAN_ANOMALY":255.3707,"EPHEMERIS_TYPE":0,"CLASSIFICATION_TYPE":"U","NORAD_CAT_ID":48223,"ELEMENT_SET_NO":999,"REV_AT_EPOCH":20731,"BSTAR":5.9561e-5,"MEAN_MOTION_DOT":3.5e-7,"MEAN_MOTION_DDOT":0},{"OBJECT_NAME":"ONEWEB-0202","OBJECT_ID":"2021-031Q","EPOCH":"2025-08-08T08:38:45.688128","MEAN_MOTION":13.1450476,"ECCENTRICITY":0.0001337,"INCLINATION":87.9078,"RA_OF_ASC_NODE":351.9646,"ARG_OF_PERICENTER":74.7792,"MEAN_ANOMALY":285.3486,"EPHEMERIS_TYPE":0,"CLASSIFICATION_TYPE":"U","NORAD_CAT_ID":48224,"ELEMENT_SET_NO":999,"REV_AT_EPOCH":20726,"BSTAR":0.00069974,"MEAN_MOTION_DOT":2.72e-6,"MEAN_MOTION_DDOT":0},{"OBJECT_NAME":"ONEWEB-0204","OBJECT_ID":"2021-031R","EPOCH":"2025-08-08T14:56:41.216064","MEAN_MOTION":13.14501278,"ECCENTRICITY":0.0001986,"INCLINATION":87.9064,"RA_OF_ASC_NODE":351.9067,"ARG_OF_PERICENTER":105.4484,"MEAN_ANOMALY":254.6865,"EPHEMERIS_TYPE":0,"CLASSIFICATION_TYPE":"U","NORAD_CAT_ID":48225,"ELEMENT_SET_NO":999,"REV_AT_EPOCH":20719,"BSTAR":-0.00056048,"MEAN_MOTION_DOT":-1.95e-6,"MEAN_MOTION_DDOT":0},{"OBJECT_NAME":"ONEWEB-0205","OBJECT_ID":"2021-031S","EPOCH":"2025-08-08T14:21:18.634176","MEAN_MOTION":13.14502769,"ECCENTRICITY":0.0001641,"INCLINATION":87.9073,"RA_OF_ASC_NODE":351.9,"ARG_OF_PERICENTER":101.5884,"MEAN_ANOMALY":258.543,"EPHEMERIS_TYPE":0,"CLASSIFICATION_TYPE":"U","NORAD_CAT_ID":48226,"ELEMENT_SET_NO":999,"REV_AT_EPOCH":20720,"BSTAR":0.00042367,"MEAN_MOTION_DOT":1.7e-6,"MEAN_MOTION_DDOT":0},{"OBJECT_NAME":"ONEWEB-0206","OBJECT_ID":"2021-031T","EPOCH":"2025-08-08T04:34:25.363776","MEAN_MOTION":13.14502092,"ECCENTRICITY":0.0001786,"INCLINATION":87.9074,"RA_OF_ASC_NODE":351.9611,"ARG_OF_PERICENTER":100.8256,"MEAN_ANOMALY":259.3074,"EPHEMERIS_TYPE":0,"CLASSIFICATION_TYPE":"U","NORAD_CAT_ID":48227,"ELEMENT_SET_NO":999,"REV_AT_EPOCH":20710,"BSTAR":-0.00026299,"MEAN_MOTION_DOT":-8.5e-7,"MEAN_MOTION_DDOT":0},{"OBJECT_NAME":"ONEWEB-0182","OBJECT_ID":"2021-031U","EPOCH":"2025-08-08T08:06:49.456224","MEAN_MOTION":13.14503646,"ECCENTRICITY":0.000192,"INCLINATION":87.9071,"RA_OF_ASC_NODE":351.9764,"ARG_OF_PERICENTER":104.4868,"MEAN_ANOMALY":255.6475,"EPHEMERIS_TYPE":0,"CLASSIFICATION_TYPE":"U","NORAD_CAT_ID":48228,"ELEMENT_SET_NO":999,"REV_AT_EPOCH":20733,"BSTAR":0.00027248,"MEAN_MOTION_DOT":1.14e-6,"MEAN_MOTION_DDOT":0},{"OBJECT_NAME":"ONEWEB-0186","OBJECT_ID":"2021-031V","EPOCH":"2025-08-08T08:22:48.148896","MEAN_MOTION":13.1450203,"ECCENTRICITY":0.0001733,"INCLINATION":87.9077,"RA_OF_ASC_NODE":351.9353,"ARG_OF_PERICENTER":98.6658,"MEAN_ANOMALY":261.4668,"EPHEMERIS_TYPE":0,"CLASSIFICATION_TYPE":"U","NORAD_CAT_ID":48229,"ELEMENT_SET_NO":999,"REV_AT_EPOCH":20728,"BSTAR":0.00050113,"MEAN_MOTION_DOT":1.99e-6,"MEAN_MOTION_DDOT":0},{"OBJECT_NAME":"ONEWEB-0181","OBJECT_ID":"2021-031W","EPOCH":"2025-08-08T15:09:14.638752","MEAN_MOTION":13.14501075,"ECCENTRICITY":0.000167,"INCLINATION":87.908,"RA_OF_ASC_NODE":351.9517,"ARG_OF_PERICENTER":94.4936,"MEAN_ANOMALY":265.6385,"EPHEMERIS_TYPE":0,"CLASSIFICATION_TYPE":"U","NORAD_CAT_ID":48230,"ELEMENT_SET_NO":999,"REV_AT_EPOCH":20717,"BSTAR":-0.00045796,"MEAN_MOTION_DOT":-1.57e-6,"MEAN_MOTION_DDOT":0},{"OBJECT_NAME":"ONEWEB-0188","OBJECT_ID":"2021-031X","EPOCH":"2025-08-08T14:14:26.651328","MEAN_MOTION":13.14504983,"ECCENTRICITY":0.0001791,"INCLINATION":87.9081,"RA_OF_ASC_NODE":351.9502,"ARG_OF_PERICENTER":99.2263,"MEAN_ANOMALY":260.9069,"EPHEMERIS_TYPE":0,"CLASSIFICATION_TYPE":"U","NORAD_CAT_ID":48231,"ELEMENT_SET_NO":999,"REV_AT_EPOCH":20707,"BSTAR":0.00076781,"MEAN_MOTION_DOT":2.97e-6,"MEAN_MOTION_DDOT":0},{"OBJECT_NAME":"ONEWEB-0220","OBJECT_ID":"2021-031Y","EPOCH":"2025-08-08T15:11:33.080064","MEAN_MOTION":13.14503202,"ECCENTRICITY":0.0001642,"INCLINATION":87.9072,"RA_OF_ASC_NODE":351.882,"ARG_OF_PERICENTER":103.8815,"MEAN_ANOMALY":256.2498,"EPHEMERIS_TYPE":0,"CLASSIFICATION_TYPE":"U","NORAD_CAT_ID":48232,"ELEMENT_SET_NO":999,"REV_AT_EPOCH":20734,"BSTAR":-0.00034302,"MEAN_MOTION_DOT":-1.14e-6,"MEAN_MOTION_DDOT":0},{"OBJECT_NAME":"ONEWEB-0165","OBJECT_ID":"2021-031Z","EPOCH":"2025-08-07T19:46:56.756064","MEAN_MOTION":13.14502261,"ECCENTRICITY":0.000159,"INCLINATION":87.907,"RA_OF_ASC_NODE":352.0866,"ARG_OF_PERICENTER":101.0379,"MEAN_ANOMALY":259.0929,"EPHEMERIS_TYPE":0,"CLASSIFICATION_TYPE":"U","NORAD_CAT_ID":48233,"ELEMENT_SET_NO":999,"REV_AT_EPOCH":20719,"BSTAR":0.00052235,"MEAN_MOTION_DOT":2.06e-6,"MEAN_MOTION_DDOT":0},{"OBJECT_NAME":"ONEWEB-0199","OBJECT_ID":"2021-031AA","EPOCH":"2025-08-08T04:32:08.478528","MEAN_MOTION":13.14502374,"ECCENTRICITY":0.0002022,"INCLINATION":87.9075,"RA_OF_ASC_NODE":351.9775,"ARG_OF_PERICENTER":95.788,"MEAN_ANOMALY":264.348,"EPHEMERIS_TYPE":0,"CLASSIFICATION_TYPE":"U","NORAD_CAT_ID":48234,"ELEMENT_SET_NO":999,"REV_AT_EPOCH":20714,"BSTAR":-0.00056199,"MEAN_MOTION_DOT":-1.96e-6,"MEAN_MOTION_DDOT":0},{"OBJECT_NAME":"ONEWEB-0203","OBJECT_ID":"2021-031AB","EPOCH":"2025-08-08T15:16:07.256640","MEAN_MOTION":13.14501272,"ECCENTRICITY":0.000185,"INCLINATION":87.9068,"RA_OF_ASC_NODE":351.8917,"ARG_OF_PERICENTER":89.6978,"MEAN_ANOMALY":270.4364,"EPHEMERIS_TYPE":0,"CLASSIFICATION_TYPE":"U","NORAD_CAT_ID":48235,"ELEMENT_SET_NO":999,"REV_AT_EPOCH":20721,"BSTAR":-0.00056588,"MEAN_MOTION_DOT":-1.97e-6,"MEAN_MOTION_DDOT":0}]
