ONEWEB-0183             
1 48219U 21031K   25219.89087220  .00000190  00000+0  47769-3 0  9991
2 48219  87.9072 352.0656 0001850 104.0092 256.1244 13.14503514207163
ONEWEB-0185             
1 48220U 21031L   25220.60208918  .00000114  00000+0  27196-3 0  9991
2 48220  87.9077 351.8902 0001625 110.6565 249.4739 13.14502387207182
ONEWEB-0187             
1 48221U 21031M   25220.35378561  .00000282  00000+0  72719-3 0  9993
2 48221  87.9075 351.9863 0001527 101.9666 258.1635 13.14502807207161
ONEWEB-0192             
1 48222U 21031N   25220.32377992 -.00000385  00000+0 -10729-2 0  9996
2 48222  87.9079 351.9852 0001764  94.8813 265.2518 13.14502393207070
ONEWEB-0219             
1 48223U 21031P   25220.60764500  .00000035  00000+0  59561-4 0  9992
2 48223  87.9078 351.9013 0001585 104.7598 255.3707 13.14505181207316
ONEWEB-0202             
1 48224U 21031Q   25220.36025102  .00000272  00000+0  69974-3 0  9995
2 48224  87.9078 351.9646 0001337  74.7792 285.3486 13.14504760207269
ONEWEB-0204             
1 48225U 21031R   25220.62269926 -.00000195  00000+0 -56048-3 0  9993
2 48225  87.9064 351.9067 0001986 105.4484 254.6865 13.14501278207195
ONEWEB-0205             
1 48226U 21031S   25220.59813234  .00000170  00000+0  42367-3 0  9997
2 48226  87.9073 351.9000 0001641 101.5884 258.5430 13.14502769207201
ONEWEB-0206             
1 48227U 21031T   25220.19057134 -.00000085  00000+0 -26299-3 0  9996
2 48227  87.9074 351.9611 0001786 100.8256 259.3074 13.14502092207107
ONEWEB-0182             
1 48228U 21031U   25220.33807241  .00000114  00000+0  27248-3 0  9991
2 48228  87.9071 351.9764 0001920 104.4868 255.6475 13.14503646207338
ONEWEB-0186             
1 48229U 21031V   25220.34916839  .00000199  00000+0  50113-3 0  9997
2 48229  87.9077 351.9353 0001733  98.6658 261.4668 13.14502030207281
ONEWEB-0181             
1 48230U 21031W   25220.63141943 -.00000157  00000+0 -45796-3 0  9994
2 48230  87.9080 351.9517 0001670  94.4936 265.6385 13.14501075207170
ONEWEB-0188             
1 48231U 21031X   25220.59336402  .00000297  00000+0  76781-3 0  9997
2 48231  87.9081 351.9502 0001791  99.2263 260.9069 13.14504983207073
ONEWEB-0220             
1 48232U 21031Y   25220.63302176 -.00000114  00000+0 -34302-3 0  9997
2 48232  87.9072 351.8820 0001642 103.8815 256.2498 13.14503202207343
ONEWEB-0165             
1 48233U 21031Z   25219.82426801  .00000206  00000+0  52235-3 0  9994
2 48233  87.9070 352.0866 0001590 101.0379 259.0929 13.14502261207199
ONEWEB-0199             
1 48234U 21031AA  25220.18898702 -.00000196  00000+0 -56199-3 0  9992
2 48234  87.9075 351.9775 0002022  95.7880 264.3480 13.14502374207140
ONEWEB-0203             
1 48235U 21031AB  25220.63619510 -.00000197  00000+0 -56588-3 0  9994
2 48235  87.9068 351.8917 0001850  89.6978 270.4364 13.14501272207211
